     3.00           N                   E                   RINEX VERSION / TYPE
BRD_USR             ESA                 20190112 141703  UTCPGM / RUN BY / DATE
 GAL   3.6000E+01  1.1719E-01  1.0681E-03  0.0000E+00       IONOSPHERIC CORR
GAUT  2.7939677238E-09-1.776356839E-15 518400 2035 GSTB   0 TIME SYSTEM CORR
GPGA  2.1827872843E-09 1.199040867E-14 518400 2035 GSTB   0 TIME SYSTEM CORR
                                                            END OF HEADER
E24 2019 01 12 12 30 00 6.289874669164E-03-1.968203378055E-11 0.000000000000E+00
     4.300000000000E+01-3.781250000000E+00 2.828689254833E-09 2.033055338904E+00
    -2.011656761169E-07 4.807078512385E-04 7.042661309242E-06 5.440615282059E+03
     5.634000000000E+05-3.911554813385E-08-2.945706813884E+00 4.284083843231E-08
     9.877089388876E-01 2.050625000000E+02 4.978327544696E-01-5.537730668710E-09
    -4.271606500985E-10 2.580000000000E+02 2.035000000000E+03 0.000000000000E+00
     3.120000000000E+00 0.000000000000E+00 4.260800778866E-08 0.000000000000E+00
     5.645500000000E+05 0.000000000000E+00 0.000000000000E+00 0.000000000000E+00
E24 2019 01 12 12 30 00 6.289880198892E-03-1.966782292584E-11 0.000000000000E+00
     4.300000000000E+01-3.781250000000E+00 2.828689254833E-09 2.033055338904E+00
    -2.011656761169E-07 4.807078512385E-04 7.042661309242E-06 5.440615282059E+03
     5.634000000000E+05-3.911554813385E-08-2.945706813884E+00 4.284083843231E-08
     9.877089388876E-01 2.050625000000E+02 4.978327544696E-01-5.537730668710E-09
    -4.271606500985E-10 5.210000000000E+02 2.035000000000E+03 0.000000000000E+00
     3.120000000000E+00 0.000000000000E+00 4.260800778866E-08 4.773028194904E-08
     5.645650000000E+05 0.000000000000E+00 0.000000000000E+00 0.000000000000E+00
E03 2019 01 12 12 40 00-1.213396899402E-04-4.277467269276E-12 0.000000000000E+00
     4.400000000000E+01-2.775000000000E+01 3.243706541969E-09 2.510995785373E+00
    -1.341104507446E-06 2.607948845252E-04 1.232326030731E-05 5.440620832443E+03
     5.640000000000E+05-2.235174179077E-08 1.241441507228E+00-1.862645149231E-09
     9.524476685141E-01 6.868750000000E+01 6.173075126500E-01-5.529158883090E-09
     6.893144269984E-11 5.210000000000E+02 2.035000000000E+03 0.000000000000E+00
     3.120000000000E+00 0.000000000000E+00-2.095475792885E-09-2.328306436539E-09
     5.646850000000E+05 0.000000000000E+00 0.000000000000E+00 0.000000000000E+00
E05 2019 01 12 12 40 00 1.263488666154E-04-6.593836587854E-12 0.000000000000E+00
     4.400000000000E+01-7.875000000000E+00 3.190490039574E-09 2.281024840949E+00
    -3.762543201447E-07 1.314205583185E-04 1.195259392262E-05 5.440626684189E+03
     5.640000000000E+05 1.862645149231E-08 1.241425514607E+00-5.215406417847E-08
     9.524604836765E-01 7.575000000000E+01 1.634774004659E+00-5.579875281345E-09
     7.107438910502E-11 5.210000000000E+02 2.035000000000E+03 0.000000000000E+00
     3.120000000000E+00 0.000000000000E+00-1.396983861923E-09-1.629814505577E-09
     5.646850000000E+05 0.000000000000E+00 0.000000000000E+00 0.000000000000E+00
E07 2019 01 12 12 40 00-1.111846650019E-04-7.133849067031E-12 0.000000000000E+00
     4.400000000000E+01-4.200000000000E+01 3.255135589463E-09 1.567065021108E+00
    -1.782551407814E-06 1.355730928481E-04 1.139566302299E-05 5.440624488831E+03
     5.640000000000E+05 1.303851604462E-08 1.241442572232E+00 3.725290298462E-09
     9.524914243939E-01 9.146875000000E+01-9.170729151965E-03-5.549159716205E-09
     8.821796034643E-11 5.210000000000E+02 2.035000000000E+03 0.000000000000E+00
     3.120000000000E+00 0.000000000000E+00 0.000000000000E+00 0.000000000000E+00
     5.646850000000E+05 0.000000000000E+00 0.000000000000E+00 0.000000000000E+00
E09 2019 01 12 12 40 00 6.560481910128E-03-1.132605120802E-11 0.000000000000E+00
     4.400000000000E+01-8.656250000000E+00 3.243349384235E-09-1.676345895472E+00
    -3.688037395477E-07 2.380845835432E-04 1.101382076740E-05 5.440621242523E+03
     5.640000000000E+05 3.725290298462E-08 1.232827690507E+00 3.352761268616E-08
     9.584638225625E-01 1.044062500000E+02 9.258320640502E-02-5.543802350192E-09
     1.189335254873E-10 5.210000000000E+02 2.035000000000E+03 0.000000000000E+00
     3.120000000000E+00 0.000000000000E+00-3.492459654808E-09-3.958120942116E-09
     5.646850000000E+05 0.000000000000E+00 0.000000000000E+00 0.000000000000E+00
E11 2019 01 12 12 40 00 5.719637614675E-03 8.668621376273E-13 0.000000000000E+00
     4.400000000000E+01 2.500000000000E+01 3.028697585983E-09 8.646310164038E-01
     1.154839992523E-06 2.747453982010E-04 3.719702363014E-06 5.440602319717E+03
     5.640000000000E+05 5.774199962616E-08-8.638811801873E-01 2.048909664154E-08
     9.819257428400E-01 2.735937500000E+02-3.526023155532E-01-5.748810889620E-09
     2.832260832175E-10 5.210000000000E+02 2.035000000000E+03 0.000000000000E+00
     3.120000000000E+00 0.000000000000E+00-1.839362084866E-08-2.002343535423E-08
     5.646850000000E+05 0.000000000000E+00 0.000000000000E+00 0.000000000000E+00
E12 2019 01 12 12 40 00 5.925991572440E-03 8.439826615358E-11 0.000000000000E+00
     4.400000000000E+01 2.553125000000E+01 2.980481291866E-09 2.171301286111E+00
     1.017004251480E-06 3.975303843617E-04 3.725290298462E-06 5.440604070663E+03
     5.640000000000E+05 2.048909664154E-08-8.638968407253E-01 4.097819328308E-08
     9.819397341885E-01 2.695937500000E+02-8.556444818043E-01-5.737738999860E-09
     2.603679882289E-10 5.210000000000E+02 2.035000000000E+03 0.000000000000E+00
     3.120000000000E+00 0.000000000000E+00-1.559965312481E-08-1.583248376846E-08
     5.646850000000E+05 0.000000000000E+00 0.000000000000E+00 0.000000000000E+00
E18 2019 01 12 12 40 00 5.611905362457E-03-2.849276370398E-11 0.000000000000E+00
     4.400000000000E+01 1.264062500000E+02 5.050210361533E-09-2.461651301086E+00
     5.833804607391E-06 1.663051631767E-01 2.281740307808E-06 5.289381271362E+03
     5.640000000000E+05 3.656372427940E-06-1.448559030687E+00 8.810311555862E-07
     8.818342688512E-01 2.541250000000E+02 1.441668541704E+00-6.367408085248E-09
     1.971510692762E-10 5.210000000000E+02 2.035000000000E+03 0.000000000000E+00
     3.120000000000E+00 4.550000000000E+02 1.420266926289E-08 1.583248376846E-08
     5.646850000000E+05 0.000000000000E+00 0.000000000000E+00 0.000000000000E+00
E19 2019 01 12 12 40 00-9.177776519209E-06 3.552713678801E-13 0.000000000000E+00
     4.400000000000E+01-2.100000000000E+01 3.109415233911E-09-2.297134123257E+00
    -9.965151548386E-07 1.326021738350E-04 1.060031354427E-05 5.440623170853E+03
     5.640000000000E+05-1.303851604462E-08 1.238182228151E+00-3.725290298462E-09
     9.582204120121E-01 1.119062500000E+02 2.363566896574E+00-5.474156592023E-09
     9.893269237232E-11 5.210000000000E+02 2.035000000000E+03 0.000000000000E+00
     3.120000000000E+00 0.000000000000E+00-8.614733815193E-09-8.847564458847E-09
     5.646850000000E+05 0.000000000000E+00 0.000000000000E+00 0.000000000000E+00
E24 2019 01 12 12 40 00 6.289868440945E-03-1.965361207112E-11 0.000000000000E+00
     4.400000000000E+01-3.093750000000E+00 2.844404195138E-09 2.107733811939E+00
    -1.862645149231E-07 4.808705998585E-04 7.074326276779E-06 5.440614852905E+03
     5.640000000000E+05-4.284083843231E-08-2.945710125931E+00 3.911554813385E-08
     9.877086726365E-01 2.035312500000E+02 4.975392711591E-01-5.540230772850E-09
    -4.268034923643E-10 5.210000000000E+02 2.035000000000E+03 0.000000000000E+00
     3.120000000000E+00 0.000000000000E+00 4.260800778866E-08 4.773028194904E-08
     5.646850000000E+05 0.000000000000E+00 0.000000000000E+00 0.000000000000E+00
E25 2019 01 12 12 40 00 1.926074561197E-03-1.134026206273E-11 0.000000000000E+00
     4.400000000000E+01 2.781250000000E+00 2.781901591653E-09-3.116461368234E+00
     1.005828380585E-07 1.903320662677E-04 7.284805178642E-06 5.440622276306E+03
     5.640000000000E+05 1.862645149231E-09-2.951788521292E+00-2.980232238770E-08
     9.897103073726E-01 2.010000000000E+02-1.324621282490E+00-5.443798184617E-09
    -4.421612749348E-10 5.210000000000E+02 2.035000000000E+03 0.000000000000E+00
    -1.000000000000E+00 0.000000000000E+00-1.396983861923E-09-1.629814505577E-09
     5.646850000000E+05 0.000000000000E+00 0.000000000000E+00 0.000000000000E+00
E26 2019 01 12 12 40 00 5.028274259530E-03-4.337152859080E-11 0.000000000000E+00
     4.400000000000E+01 2.431250000000E+01 3.008696752868E-09-1.399935361247E+00
     1.242384314537E-06 3.182118525729E-04 4.447996616364E-06 5.440604854584E+03
     5.640000000000E+05-2.421438694000E-08-8.602602033933E-01-3.725290298462E-09
     9.782836005473E-01 2.529687500000E+02-2.005128535595E+00-5.695594387225E-09
     3.003696544589E-10 5.210000000000E+02 2.035000000000E+03 0.000000000000E+00
     3.120000000000E+00 0.000000000000E+00 9.313225746155E-10 1.164153218269E-09
     5.646850000000E+05 0.000000000000E+00 0.000000000000E+00 0.000000000000E+00
E30 2019 01 12 12 40 00 5.194509925786E-03-3.051070507354E-11 0.000000000000E+00
     4.400000000000E+01 7.187500000000E-01 2.887263123241E-09-3.271442903700E-01
     9.313225746155E-09 3.122002817690E-04 6.530433893204E-06 5.440609983444E+03
     5.640000000000E+05 4.470348358154E-08-2.945766632604E+00 4.842877388000E-08
     9.876931218173E-01 2.121875000000E+02 5.787191276889E-01-5.534873406837E-09
    -3.660866775510E-10 5.210000000000E+02 2.035000000000E+03 0.000000000000E+00
     3.120000000000E+00 0.000000000000E+00-2.793967723846E-09-3.492459654808E-09
     5.646850000000E+05 0.000000000000E+00 0.000000000000E+00 0.000000000000E+00
